OBJECT_NAME,OBJECT_ID,EPOCH,MEAN_MOTION,ECCENTRICITY,INCLINATION,RA_OF_ASC_NODE,ARG_OF_PERICENTER,MEAN_ANOMALY,EPHEMERIS_TYPE,CLASSIFICATION_TYPE,NORAD_CAT_ID,ELEMENT_SET_NO,REV_AT_EPOCH,BSTAR,MEAN_MOTION_DOT,MEAN_MOTION_DDOT
SWARM A,2013-067B,2026-06-12T06:01:54.376320,15.50859542,.00029862,87.3336,58.0753,93.7009,266.4594,0,U,39452,999,70548,.23102871E-3,.13382E-3,0
SWARM C,2013-067C,2026-06-12T06:01:44.141376,15.50857609,.00029796,87.3335,56.6563,94.1356,266.0246,0,U,39453,999,70544,.18501431E-3,.10723E-3,0
BRITE-CA1 (TORONTO),2014-033L,2026-06-12T06:45:35.753184,14.72670377,.00773225,97.9732,292.3002,293.0076,66.2990,0,U,40020,999,64149,.10626212E-3,.655E-5,0
OCO 2,2014-035A,2026-06-12T06:43:06.509280,14.57107587,.00014942,98.2018,104.6478,86.3083,273.8286,0,U,40059,999,63533,.95499147E-4,.385E-5,0
BRITE-PL2 (HEWELIUSZ),2014-049B,2026-06-12T06:50:27.451680,14.94579118,.00151239,97.9092,275.2475,122.9628,237.3049,0,U,40119,999,64071,.13438859E-3,.1397E-4,0
MMS 1,2015-011A,2026-06-12T08:00:01.999872,0.28378493,.83212682,72.1298,348.8476,167.3543,163.3620,0,U,40482,999,138,0,-.146E-5,0
MMS 2,2015-011B,2026-06-12T08:00:01.999872,0.28378513,.83220514,72.1299,348.8498,167.3600,163.3504,0,U,40483,999,138,0,-.146E-5,0
MMS 3,2015-011C,2026-06-12T08:00:01.999872,0.28378473,.83212355,72.1330,348.8543,167.3545,163.3464,0,U,40484,999,138,0,-.146E-5,0
MMS 4,2015-011D,2026-06-12T08:00:01.999872,0.28378465,.83208428,72.1291,348.8501,167.3623,163.3349,0,U,40485,999,138,0,-.146E-5,0
ASTROSAT,2015-052A,2026-06-12T05:56:47.022144,14.82499825,.00082344,5.9957,190.9157,321.4008,38.5531,0,U,40930,999,57909,.10616551E-3,.1544E-4,0
DAMPE,2015-078A,2026-06-12T06:22:44.042592,15.30774233,.00138101,97.4560,168.7086,92.3367,267.9455,0,U,41173,999,58379,.59141912E-4,.1685E-4,0
PISAT,2016-059B,2026-06-12T05:45:07.820640,14.68975851,.00280013,97.8179,163.9051,219.0521,140.8664,0,U,41784,999,51901,.15687719E-3,.877E-5,0
HXMT (HUIYAN),2017-034A,2026-06-12T06:24:02.599200,15.18448317,.00302229,43.0133,210.4397,114.8323,245.5673,0,U,42758,999,49691,.21171997E-3,.4248E-4,0
FLYING LAPTOP,2017-042G,2026-06-12T07:40:01.847712,15.01113866,.00193262,97.4663,319.0404,137.4850,222.7875,0,U,42831,999,48572,.25010081E-3,.3157E-4,0
ZHANGHENG 1-01 (CSES-1),2018-015C,2026-06-12T08:03:31.601088,15.20751426,.00170645,97.6860,328.8977,284.6905,75.2438,0,U,43194,999,46390,.3481068E-3,.7621E-4,0
SALSAT,2020-068K,2026-06-12T05:45:09.268704,15.29730151,.0008469,97.8848,166.0033,328.8216,31.2520,0,U,46495,999,31460,.28201772E-3,.8047E-4,0
IXPE,2021-121A,2026-06-12T08:00:01.999872,15.10206050,.00074008,0.2322,354.2487,2.4212,129.2881,0,U,49954,999,574,.60396746E-3,.11105E-3,0
SMILE,2026-109A,2026-05-24T15:40:35.120928,14.57062785,.00091232,70.0007,229.2745,259.5159,100.4951,0,U,69123,999,80,-.42378883E-3,-.1976E-4,0
