SWARM A                 
1 39452U 13067B   26163.25132380  .00013382  00000+0  23103-3 0  9990
2 39452  87.3336  58.0753 0002986  93.7009 266.4594 15.50859542705480
SWARM C                 
1 39453U 13067C   26163.25120534  .00010723  00000+0  18501-3 0  9991
2 39453  87.3335  56.6563 0002979  94.1356 266.0246 15.50857609705443
BRITE-CA1 (TORONTO)     
1 40020U 14033L   26163.28166381  .00000655  00000+0  10626-3 0  9993
2 40020  97.9732 292.3002 0077322 293.0076  66.2990 14.72670377641491
OCO 2                   
1 40059U 14035A   26163.27993645  .00000385  00000+0  95499-4 0  9999
2 40059  98.2018 104.6478 0001494  86.3083 273.8286 14.57107587635335
BRITE-PL2 (HEWELIUSZ)   
1 40119U 14049B   26163.28503995  .00001397  00000+0  13439-3 0  9994
2 40119  97.9092 275.2475 0015123 122.9628 237.3049 14.94579118640712
MMS 1                   
1 40482U 15011A   26163.33335648 -.00000146  00000+0  00000+0 0  9999
2 40482  72.1298 348.8476 8321268 167.3543 163.3620  0.28378493  1385
MMS 2                   
1 40483U 15011B   26163.33335648 -.00000146  00000+0  00000+0 0  9990
2 40483  72.1299 348.8498 8322051 167.3600 163.3504  0.28378513  1380
MMS 3                   
1 40484U 15011C   26163.33335648 -.00000146  00000+0  00000+0 0  9991
2 40484  72.1330 348.8543 8321235 167.3545 163.3464  0.28378473  1389
MMS 4                   
1 40485U 15011D   26163.33335648 -.00000146  00000+0  00000+0 0  9992
2 40485  72.1291 348.8501 8320842 167.3623 163.3349  0.28378465  1383
ASTROSAT                
1 40930U 15052A   26163.24776646  .00001544  00000+0  10617-3 0  9990
2 40930   5.9957 190.9157 0008234 321.4008  38.5531 14.82499825579097
DAMPE                   
1 41173U 15078A   26163.26578753  .00001685  00000+0  59142-4 0  9992
2 41173  97.4560 168.7086 0013810  92.3367 267.9455 15.30774233583793
PISAT                   
1 41784U 16059B   26163.23967385  .00000877  00000+0  15688-3 0  9998
2 41784  97.8179 163.9051 0028001 219.0521 140.8664 14.68975851519012
HXMT (HUIYAN)           
1 42758U 17034A   26163.26669675  .00004248  00000+0  21172-3 0  9999
2 42758  43.0133 210.4397 0030222 114.8323 245.5673 15.18448317496912
FLYING LAPTOP           
1 42831U 17042G   26163.31946583  .00003157  00000+0  25010-3 0  9995
2 42831  97.4663 319.0404 0019326 137.4850 222.7875 15.01113866485726
ZHANGHENG 1-01 (CSES-1) 
1 43194U 18015C   26163.33578242  .00007621  00000+0  34811-3 0  9993
2 43194  97.6860 328.8977 0017064 284.6905  75.2438 15.20751426463909
SALSAT                  
1 46495U 20068K   26163.23969061  .00008047  00000+0  28202-3 0  9993
2 46495  97.8848 166.0033 0008469 328.8216  31.2520 15.29730151314601
IXPE                    
1 49954U 21121A   26163.33335648  .00011105  00000+0  60397-3 0  9996
2 49954   0.2322 354.2487 0007400   2.4212 129.2881 15.10206050  5744
SMILE                   
1 69123U 26109A   26144.65318427 -.00001976  00000+0 -42379-3 0  9994
2 69123  70.0007 229.2745 0009123 259.5159 100.4951 14.57062785   802
